[{"OBJECT_NAME":"STARLINK-4426","OBJECT_ID":"2022-099V","EPOCH":"2026-03-09T20:59:05.066016","MEAN_MOTION":15.05654177,"ECCENTRICITY":5.881e-5,"INCLINATION":97.6033,"RA_OF_ASC_NODE":191.3741,"ARG_OF_PERICENTER":182.7659,"MEAN_ANOMALY":177.3565,"EPHEMERIS_TYPE":0,"CLASSIFICATION_TYPE":"U","NORAD_CAT_ID":53484,"ELEMENT_SET_NO":999,"REV_AT_EPOCH":19607,"BSTAR":0.00015015842,"MEAN_MOTION_DOT":2.107e-5,"MEAN_MOTION_DDOT":0},{"OBJECT_NAME":"FENGYUN 1C DEB","OBJECT_ID":"1999-025DMH","EPOCH":"2026-03-08T12:22:59.285280","MEAN_MOTION":14.74467635,"ECCENTRICITY":0.01679532,"INCLINATION":98.8961,"RA_OF_ASC_NODE":332.7174,"ARG_OF_PERICENTER":174.5846,"MEAN_ANOMALY":185.7228,"EPHEMERIS_TYPE":0,"CLASSIFICATION_TYPE":"U","NORAD_CAT_ID":35153,"ELEMENT_SET_NO":999,"REV_AT_EPOCH":98481,"BSTAR":0.00043532495,"MEAN_MOTION_DOT":3.561e-5,"MEAN_MOTION_DDOT":0}]
